2022-098M               
1 53455U 22098M   22234.92829010  .00005507  00000+0  34235-3 0  9993
2 53455  97.5295 331.0597 0010702 235.6047 259.2432 15.10002656  1909
2022-098N               
1 53456U 22098N   22234.92788091  .00005481  00000+0  34043-3 0  9995
2 53456  97.5260 331.0520 0010394 236.5839 257.8410 15.10042076  1904
2022-098P               
1 53457U 22098P   22234.96801802  .00003308  00000+0  20620-3 0  9998
2 53457  97.5271 331.0964 0010054 238.8557 121.1687 15.10198730  1913
2022-098Q               
1 53458U 22098Q   22234.92680850  .00005465  00000+0  33833-3 0  9999
2 53458  97.5306 331.0646 0010063 239.1443 255.1795 15.10167199  1900
2022-098R               
1 53459U 22098R   22234.92594676  .00005418  00000+0  33464-3 0  9998
2 53459  97.5289 331.0615 0009760 239.5077 254.2821 15.10257438  1902
HSU-SAT1                
1 53462U 98067UB  22234.84152733  .00020753  00000+0  35157-3 0  9996
2 53462  51.6420   6.2989 0006764 173.0296 187.0789 15.51478825  1631
FUTABA                  
1 53463U 98067UC  22226.74417056  .00032628  00000+0  55523-3 0  9992
2 53463  51.6435  46.4830 0007849 138.2377 332.5144 15.51075903   379
TUMNANOSAT              
1 53464U 98067UD  22226.73602287  .00035547  00000+0  60268-3 0  9999
2 53464  51.6409  46.5226 0007902 141.9590 283.7101 15.51135793   373
STARLINK-4415           
1 53465U 22099A   22234.91667824 -.00023842  00000+0 -19623-3 0  9995
2 53465  97.6577 353.0956 0001555  90.8412  15.8518 15.70276212  1829
STARLINK-4398           
1 53466U 22099B   22234.91667824 -.00027183  00000+0 -22385-3 0  9997
2 53466  97.6579 353.0951 0001767  90.1942  17.1066 15.70288312  1820
STARLINK-4394           
1 53467U 22099C   22234.91667824 -.00029995  00000+0 -24718-3 0  9993
2 53467  97.6567 353.0955 0001265  91.8671  16.0398 15.70291683  1823
STARLINK-4400           
1 53468U 22099D   22234.91667824 -.00028285  00000+0 -23329-3 0  9992
2 53468  97.6576 353.0957 0001512  86.9872  21.5777 15.70258947  1300
STARLINK-4399           
1 53469U 22099E   22234.91667824 -.00151596  00000+0 -12695-2 0  9998
2 53469  97.6580 353.0974 0001397  80.3608  29.3956 15.70336524  1821
STARLINK-4393           
1 53470U 22099F   22234.91667824 -.00024668  00000+0 -20311-3 0  9994
2 53470  97.6570 353.0961 0001505  78.1101  30.9568 15.70273269  1308
STARLINK-4316           
1 53471U 22099G   22234.91667824 -.00121089  00000+0 -10091-2 0  9993
2 53471  97.6576 353.0970 0001719  78.8479  31.9523 15.70360678  1300
STARLINK-4447           
1 53472U 22099H   22234.91667824 -.00028231  00000+0 -23303-3 0  9990
2 53472  97.6585 353.0968 0001406  82.4628  27.8440 15.70239277  1300
STARLINK-4383           
1 53473U 22099J   22234.91667824 -.00028131  00000+0 -23178-3 0  9990
2 53473  97.6574 353.0987 0001533  82.4554  30.2562 15.70283034  1302
STARLINK-4445           
1 53474U 22099K   22234.91667824 -.00157933  00000+0 -13194-2 0  9990
2 53474  97.6565 353.0987 0001536  83.4954  31.4779 15.70412689  1304
STARLINK-4389           
1 53475U 22099L   22234.91667824 -.00118382  00000+0 -98451-3 0  9996
2 53475  97.6571 353.0984 0000865  76.3590  36.8077 15.70404433  1308
STARLINK-4378           
1 53476U 22099M   22234.91667824 -.00095345  00000+0 -79209-3 0  9990
2 53476  97.6585 353.0980 0001121  93.8199  17.7631 15.70356842  1309
STARLINK-4412           
1 53477U 22099N   22234.91667824 -.00083231  00000+0 -69138-3 0  9992
2 53477  97.6577 353.0998 0001347  79.7950  34.7466 15.70319327  1300
STARLINK-4433           
1 53478U 22099P   22234.91667824 -.00194054  00000+0 -16367-2 0  9994
2 53478  97.6587 353.0980 0001392  91.5624  20.9978 15.70289719  1309
STARLINK-4436           
1 53479U 22099Q   22234.91667824 -.00028325  00000+0 -23343-3 0  9995
2 53479  97.6570 353.1006 0001478  81.1674  34.5348 15.70279280  1301
STARLINK-4442           
1 53480U 22099R   22234.91667824 -.00075389  00000+0 -62589-3 0  9994
2 53480  97.6588 353.0991 0001326  78.8018  35.1156 15.70306594  1304
STARLINK-4302           
1 53481U 22099S   22234.91667824 -.00175117  00000+0 -14680-2 0  9993
2 53481  97.6586 353.1014 0001561  82.6736  34.2572 15.70380447  1302
STARLINK-4360           
1 53482U 22099T   22234.91667824 -.00052430  00000+0 -43411-3 0  9991
2 53482  97.6586 353.1004 0001688  81.6574  34.6460 15.70286229  1304
STARLINK-4401           
1 53483U 22099U   22234.91667824 -.00135501  00000+0 -11292-2 0  9994
2 53483  97.6571 353.1019 0001307  83.7965  34.7439 15.70405949  1309
STARLINK-4426           
1 53484U 22099V   22234.91667824 -.00027443  00000+0 -22618-3 0  9995
2 53484  97.6582 353.1012 0001118  96.0724  21.4107 15.70271297  1307
STARLINK-4430           
1 53485U 22099W   22234.91667824 -.00123395  00000+0 -10289-2 0  9999
2 53485  97.6589 353.1030 0001497  83.2107  36.7039 15.70354731  1306
STARLINK-4431           
1 53486U 22099X   22234.91667824 -.00072459  00000+0 -60018-3 0  9990
2 53486  97.6590 353.1019 0001236  84.7282  33.3859 15.70352242  1305
STARLINK-4432           
1 53487U 22099Y   22234.91667824 -.00028801  00000+0 -23668-3 0  9993
2 53487  97.6568 353.1032 0000978  69.9305  50.8860 15.70351355  1309
STARLINK-4421           
1 53488U 22099Z   22234.91667824 -.00115013  00000+0 -95932-3 0  9999
2 53488  97.6579 353.1023 0001706  84.0778  35.2085 15.70320443  1304
STARLINK-4392           
1 53489U 22099AA  22234.91667824 -.00101452  00000+0 -84429-3 0  9991
2 53489  97.6596 353.1043 0001260  82.0080  40.2529 15.70334197  1305
STARLINK-4387           
1 53490U 22099AB  22234.91667824 -.00029356  00000+0 -24212-3 0  9999
2 53490  97.6579 353.1028 0001425  82.2725  38.1806 15.70267128  1305
STARLINK-4450           
1 53491U 22099AC  22234.91667824 -.00045591  00000+0 -37716-3 0  9992
2 53491  97.6600 353.1051 0001563  79.7771  43.7216 15.70278674  1307
STARLINK-4451           
1 53492U 22099AD  22234.91667824 -.00028820  00000+0 -23754-3 0  9996
2 53492  97.6589 353.1036 0001684  79.8459  41.8107 15.70278745  1302
STARLINK-4361           
1 53493U 22099AE  22234.91667824 -.00016132  00000+0 -13224-3 0  9991
2 53493  97.6583 353.1055 0001690  92.2531  32.4190 15.70286100  1307
STARLINK-4340           
1 53494U 22099AF  22234.91667824 -.00116947  00000+0 -97248-3 0  9995
2 53494  97.6568 353.1037 0001686  77.7967  44.8683 15.70400136  1308
STARLINK-4429           
1 53495U 22099AG  22234.91667824 -.00053547  00000+0 -44267-3 0  9995
2 53495  97.6612 353.1067 0001231  84.0574  41.8252 15.70329269  1309
STARLINK-4465           
1 53496U 22099AH  22234.91667824 -.00026948  00000+0 -22208-3 0  9992
2 53496  97.6586 353.1048 0001567  95.4205  28.6440 15.70269565  1302
STARLINK-4453           
1 53497U 22099AJ  22234.91667824 -.00110124  00000+0 -91480-3 0  9991
2 53497  97.6570 353.1066 0001750  80.0825  46.7797 15.70403588  1309
STARLINK-4439           
1 53498U 22099AK  22234.91667824 -.00197694  00000+0 -16581-2 0  9997
2 53498  97.6586 353.1053 0001477  77.3661  47.7733 15.70434794  1300
STARLINK-4454           
1 53499U 22099AL  22234.91667824 -.00031748  00000+0 -26072-3 0  9992
2 53499  97.6626 353.1080 0001780  87.7020  40.3342 15.70384583  1302
STARLINK-4455           
1 53500U 22099AM  22234.91667824 -.00022181  00000+0 -18236-3 0  9999
2 53500  97.6602 353.1065 0001766  85.8725  40.6382 15.70287343  1300
STARLINK-4434           
1 53501U 22099AN  22234.91667824 -.00155332  00000+0 -12989-2 0  9993
2 53501  97.6608 353.1084 0001560  77.8887  51.4805 15.70381961  1301
STARLINK-4435           
1 53502U 22099AP  22234.91667824 -.00070797  00000+0 -58786-3 0  9991
2 53502  97.6612 353.1072 0001221  84.1408  44.1196 15.70286796  1300
STARLINK-4461           
1 53503U 22099AQ  22234.91667824 -.00029755  00000+0 -24436-3 0  9995
2 53503  97.6616 353.1091 0001924  93.1518  37.1876 15.70371156  1300
STARLINK-4448           
1 53504U 22099AR  22234.91667824 -.00027021  00000+0 -22201-3 0  9998
2 53504  97.6575 353.1071 0001346  88.9848  39.5431 15.70342973  1307
STARLINK-4446           
1 53505U 22099AS  22234.91667824 -.00026997  00000+0 -22183-3 0  9999
2 53505  97.6579 353.1093 0000973  82.4438  49.0769 15.70341776  1305
STARLINK-4437           
1 53506U 22099AT  22234.91667824 -.00024182  00000+0 -19899-3 0  9994
2 53506  97.6603 353.1085 0001444  84.4482  46.2094 15.70283913  1308
STARLINK-4444           
1 53507U 22099AU  22234.91667824 -.00029922  00000+0 -24702-3 0  9991
2 53507  97.6608 353.1102 0001592  84.2075  48.2208 15.70247619  1306
STARLINK-4443           
1 53508U 22099AV  22234.91667824 -.00152072  00000+0 -12689-2 0  9995
2 53508  97.6590 353.1090 0001442  76.6776  54.4156 15.70424598  1304
STARLINK-4402           
1 53509U 22099AW  22234.91667824 -.00024189  00000+0 -19893-3 0  9998
2 53509  97.6603 353.1107 0001681  79.2024  54.3980 15.70297681  1304
STARLINK-4441           
1 53510U 22099AX  22234.91667824 -.00029211  00000+0 -23985-3 0  9998
2 53510  97.6578 353.1095 0001526  82.5022  50.2986 15.70372896  1309
FALCON 9 DEB            
1 53511U 22099AY  22234.84564621  .00106509  63454-5  39700-3 0  9996
2 53511  97.6762 353.1712 0009752 239.5812 120.4496 15.87986822  1585
FALCON 9 DEB            
1 53512U 22099AZ  22234.84320877  .00118767  73324-5  43270-3 0  9993
2 53512  97.6742 353.1717 0007462 231.0425 129.0182 15.88468421  1580
FALCON 9 DEB            
1 53513U 22099BA  22234.83638370  .00128620  82750-5  43913-3 0  9999
2 53513  97.6714 353.1757 0011906 219.7254 140.3147 15.89685044  1585
FALCON 9 DEB            
1 53514U 22099BB  22234.83454477  .00131708  85809-5  44369-3 0  9999
2 53514  97.6705 353.1759 0010869 205.1110 154.9635 15.89969221  1580
2022-100A               
1 53522U 22101A   22234.16181932 -.00000037  00000+0  00000+0 0  9996
2 53522  34.9981 192.4639 0007774 282.2583 196.2258 15.23065516   379
